     2.100          NAVIGATION                              RINEX VERSION / TYPE
fic2rin                                 01/13/2013 00:22:54 PGM / RUN BY / DATE
                                                            END OF HEADER
11 13  1 12  6  0  0.0 -.342672225088D-03 -.375166564481D-11  .000000000000D+00
     .570000000000D+02  .244062500000D+02  .602275087175D-08 -.144495037459D+01
     .135414302349D-05  .137955574319D-01  .102799385786D-04  .515368650246D+04
     .540000000000D+06  .277534127235D-06  .751370305589D+00  .210478901863D-06
     .888663287479D+00  .141062500000D+03  .113898380860D+01 -.864714590262D-08
     .537522389965D-09  .100000000000D+01  .172200000000D+04  .000000000000D+00
     .240000000000D+01  .000000000000D+00 -.116415321827D-07  .570000000000D+02
     .532806000000D+06  .400000000000D+01
12 13  1 12  6  0  0.0  .111905857921D-03  .204636307899D-11  .000000000000D+00
     .110000000000D+02 -.891875000000D+02  .451125934063D-08 -.191872303182D+01
    -.453367829323D-05  .415711966343D-02  .983476638794D-06  .515364018822D+04
     .540000000000D+06  .149011611938D-07 -.102602550197D+01 -.614672899246D-07
     .982401943156D+00  .371187500000D+03  .140434272234D+00 -.843142263117D-08
    -.233938315898D-09  .100000000000D+01  .172200000000D+04  .000000000000D+00
     .240000000000D+01  .000000000000D+00 -.121071934700D-07  .110000000000D+02
     .532806000000D+06  .400000000000D+01
13 13  1 12  6  0  0.0  .153151806444D-03 -.284217094304D-11  .000000000000D+00
     .690000000000D+02  .570625000000D+02  .359193533281D-08  .792718757610D+00
     .295415520668D-05  .487770838663D-02  .125803053379D-04  .515357774734D+04
     .540000000000D+06  .130385160446D-07 -.305231868784D+01 -.577419996262D-07
     .983540473780D+00  .149125000000D+03  .206758323528D+01 -.755852912879D-08
    -.262153776900D-09  .100000000000D+01  .172200000000D+04  .000000000000D+00
     .240000000000D+01  .000000000000D+00 -.111758708954D-07  .690000000000D+02
     .532806000000D+06  .400000000000D+01
14 13  1 12  6  0  0.0  .219463370740D-03  .454747350886D-12  .000000000000D+00
     .770000000000D+02  .443750000000D+02  .379551524130D-08  .940981966144D+00
     .230036675930D-05  .672629359178D-02  .136476010084D-04  .515370409775D+04
     .540000000000D+06 -.128522515297D-06 -.308059337746D+01 -.167638063431D-07
     .976261786319D+00  .121343750000D+03 -.201486629911D+01 -.768889170177D-08
    -.412874340731D-09  .100000000000D+01  .172200000000D+04  .000000000000D+00
     .240000000000D+01  .000000000000D+00 -.884756445885D-08  .770000000000D+02
     .532806000000D+06  .400000000000D+01
15 13  1 12  6  0  0.0 -.104901846498D-03 -.113686837722D-11  .000000000000D+00
     .450000000000D+02  .430000000000D+02  .458090509880D-08  .495825060327D+00
     .225007534027D-05  .523243355565D-02  .127330422401D-04  .515370289421D+04
     .540000000000D+06  .106170773506D-06  .310727978423D+01  .149011611938D-07
     .942905792657D+00  .122937500000D+03  .104631324257D+00 -.798354683249D-08
    -.478948521557D-09  .100000000000D+01  .172200000000D+04  .000000000000D+00
     .240000000000D+01  .000000000000D+00 -.102445483208D-07  .450000000000D+02
     .532806000000D+06  .400000000000D+01
16 13  1 12  6  0  0.0 -.251708552241D-03 -.341060513165D-12  .000000000000D+00
     .870000000000D+02 -.799687500000D+02  .446661462386D-08  .211762433628D+01
    -.402703881264D-05  .679629552178D-02  .936910510063D-06  .515356275940D+04
     .540000000000D+06 -.186264514923D-07 -.100771155823D+01  .158324837685D-06
     .983155837507D+00  .375687500000D+03  .279672851783D-01 -.833570435840D-08
    -.288583449230D-09  .100000000000D+01  .172200000000D+04  .000000000000D+00
     .240000000000D+01  .000000000000D+00 -.977888703346D-08  .870000000000D+02
     .532806000000D+06  .400000000000D+01
17 13  1 12  6  0  0.0  .604689121246D-04 -.363797880709D-11  .000000000000D+00
     .360000000000D+02 -.104375000000D+03  .415517307964D-08  .112738695269D+01
    -.537745654583D-05  .801875477191D-02  .125784426928D-04  .515379181671D+04
     .540000000000D+06 -.100582838058D-06  .304298444394D-01  .651925802231D-07
     .964940065810D+00  .142781250000D+03 -.226159820318D+01 -.789354308347D-08
    -.111790370803D-09  .100000000000D+01  .172200000000D+04  .000000000000D+00
     .240000000000D+01  .000000000000D+00 -.107102096081D-07  .360000000000D+02
     .532806000000D+06  .400000000000D+01
18 13  1 12  6  0  0.0  .233963597566D-03  .181898940355D-11  .000000000000D+00
     .540000000000D+02 -.294062500000D+02  .560130474540D-08  .262603465995D+01
    -.161305069923D-05  .136477537453D-01  .488944351673D-05  .515374464226D+04
     .540000000000D+06  .912696123123D-07  .209001041019D+01 -.173225998878D-06
     .927674063703D+00  .266031250000D+03 -.213141605499D+01 -.837392023596D-08
    -.312870175156D-09  .100000000000D+01  .172200000000D+04  .000000000000D+00
     .240000000000D+01  .000000000000D+00 -.107102096081D-07  .540000000000D+02
     .532806000000D+06  .400000000000D+01
19 13  1 12  6  0  0.0 -.339120626450D-03 -.329691829393D-11  .000000000000D+00
     .350000000000D+02 -.100250000000D+03  .421374694805D-08  .418416741194D+00
    -.519305467606D-05  .879149069078D-02  .115837901831D-04  .515366500092D+04
     .540000000000D+06  .111758708954D-06  .827434701862D-01  .102445483208D-06
     .962221040917D+00  .154468750000D+03  .275468062419D+00 -.791854412486D-08
    -.300012496725D-10  .100000000000D+01  .172200000000D+04  .000000000000D+00
     .240000000000D+01  .000000000000D+00 -.144354999065D-07  .350000000000D+02
     .532806000000D+06  .400000000000D+01
20 13  1 12  6  0  0.0  .797263346612D-04  .136424205266D-11  .000000000000D+00
     .470000000000D+02 -.288437500000D+02  .566916471489D-08 -.307854455922D+01
    -.142678618431D-05  .546970393043D-02  .457093119621D-05  .515354714203D+04
     .540000000000D+06  .689178705215D-07  .203642260182D+01 -.521540641785D-07
     .928291957875D+00  .273312500000D+03  .128490086519D+01 -.859035782288D-08
    -.292512184307D-09  .100000000000D+01  .172200000000D+04  .000000000000D+00
     .240000000000D+01  .000000000000D+00 -.791624188423D-08  .470000000000D+02
     .532806000000D+06  .400000000000D+01
21 13  1 12  6  0  0.0 -.274050515145D-03 -.227373675443D-11  .000000000000D+00
     .790000000000D+02  .336250000000D+02  .515664336632D-08 -.255216736475D+01
     .152364373207D-05  .196558324387D-01  .881589949131D-05  .515374417114D+04
     .540000000000D+06  .253319740295D-06  .104071803735D+01 -.188127160072D-06
     .931291353943D+00  .189968750000D+03 -.218877591133D+01 -.798818988303D-08
     .813248160764D-09  .100000000000D+01  .172200000000D+04  .000000000000D+00
     .240000000000D+01  .000000000000D+00 -.111758708954D-07  .790000000000D+02
     .532806000000D+06  .400000000000D+01
22 13  1 12  6  0  0.0  .155514571816D-03  .909494701773D-12  .000000000000D+00
     .810000000000D+02 -.260625000000D+02  .582167106740D-08  .196328426845D+01
    -.139512121677D-05  .614469673019D-02  .481121242046D-05  .515365047455D+04
     .540000000000D+06 -.428408384323D-07  .209290486237D+01 -.160187482834D-06
     .925413643147D+00  .267937500000D+03 -.202805118184D+01 -.867178978628D-08
    -.298226708054D-09  .100000000000D+01  .172200000000D+04  .000000000000D+00
     .340000000000D+01  .000000000000D+00 -.172294676304D-07  .810000000000D+02
     .532806000000D+06  .400000000000D+01
23 13  1 12  6  0  0.0  .124752987176D-03 -.375166564481D-11  .000000000000D+00
     .900000000000D+01  .434375000000D+02  .426124892669D-08 -.635244819354D-02
     .232458114624D-05  .814100669231D-02  .123027712107D-04  .515377326584D+04
     .540000000000D+06  .106170773506D-06 -.313680051725D+01  .856816768646D-07
     .957794082574D+00  .142000000000D+03 -.291521861364D+01 -.792925885689D-08
    -.343228582562D-09  .100000000000D+01  .172200000000D+04  .000000000000D+00
     .240000000000D+01  .000000000000D+00 -.204890966415D-07  .900000000000D+01
     .532806000000D+06  .400000000000D+01
24 13  1 12  6  0  0.0  .797212123871D-06 -.682121026330D-12  .000000000000D+00
     .660000000000D+02  .157656250000D+03  .470269588616D-08 -.525071468409D+00
     .810436904430D-05  .499525805935D-03  .536069273949D-05  .515371073151D+04
     .540000000000D+06  .447034835815D-07 -.211067228478D+01 -.186264514923D-07
     .959332738848D+00  .276093750000D+03 -.555451722851D-01 -.837677749783D-08
     .445018536808D-09  .100000000000D+01  .172200000000D+04  .000000000000D+00
     .340000000000D+01  .000000000000D+00  .419095158577D-08  .660000000000D+02
     .532806000000D+06  .400000000000D+01
25 13  1 12  6  0  0.0  .623217783868D-04  .250111042988D-11  .000000000000D+00
     .820000000000D+02 -.753125000000D+02  .473876881731D-08 -.287629057860D+01
    -.392459332943D-05  .198766787071D-02  .558793544769D-06  .515360129547D+04
     .540000000000D+06 -.353902578354D-07 -.106275578494D+01 -.316649675369D-07
     .971226417902D+00  .373812500000D+03  .588024009355D+00 -.854428447517D-08
    -.231438211759D-09  .100000000000D+01  .172200000000D+04  .000000000000D+00
     .240000000000D+01  .000000000000D+00  .512227416039D-08  .820000000000D+02
     .532806000000D+06  .400000000000D+01
26 13  1 12  6  0  0.0 -.141524244100D-03  .137561073643D-10  .000000000000D+00
     .650000000000D+02  .683125000000D+02  .383087385699D-08 -.118013594140D+00
     .359304249287D-05  .210146111203D-01  .131055712700D-04  .515366355896D+04
     .540000000000D+06 -.175088644028D-06 -.305918539855D+01  .214204192162D-06
     .981021638986D+00  .145312500000D+03  .121336674877D+01 -.790247202682D-08
    -.309655755548D-09  .100000000000D+01  .172200000000D+04  .000000000000D+00
     .240000000000D+01  .000000000000D+00 -.605359673500D-08  .650000000000D+02
     .532806000000D+06  .400000000000D+01
